ZHOU ENLAI              
1 43156U 18008B   21218.15604374  .00001135  00000-0  69258-4 0  9994
2 43156  97.4039 281.4621 0015214 150.7498 288.9339 15.12190194195521
QUANTUTONG 1            
1 43158U 18008D   21218.11332265  .00001351  00000-0  83066-4 0  9992
2 43158  97.3994 279.9253 0014471 150.3674 267.3710 15.11603330195446
S-NET D                 
1 43186U 18014G   21217.48222575  .00000610  00000-0  57824-4 0  9991
2 43186  97.6729 124.1810 0009307 278.4686  81.5481 14.97100346191633
S-NET B                 
1 43187U 18014H   21218.01686125  .00000668  00000-0  62855-4 0  9990
2 43187  97.6728 124.6706 0009269 276.3037  83.7129 14.97100598191717
S-NET A                 
1 43188U 18014J   21217.48225055  .00000608  00000-0  57680-4 0  9996
2 43188  97.6732 124.1928 0009297 278.4908  81.5260 14.97098639191630
S-NET C                 
1 43189U 18014K   21217.54957574  .00000638  00000-0  60309-4 0  9997
2 43189  97.6727 124.2042 0009279 278.1130  81.9039 14.97098707190191
FENGMANIU-1 (FMN-1)     
1 43192U 18015A   21218.24299950  .00003669  00000-0  13485-3 0  9996
2 43192  97.4944 353.8854 0015760  69.3929  47.9228 15.28444428195190
SHAONIAN XING           
1 43199U 18015H   21218.14322265  .00002649  00000-0  99942-4 0  9998
2 43199  97.4733 350.7567 0017248  78.3064 336.7152 15.27816995195234
LUOJIA-1 01             
1 43485U 18048B   21218.06178342  .00000169  00000-0  31345-4 0  9996
2 43485  97.9605 299.0747 0012503 132.7426 227.4838 14.76879330171311
SURFSAT                 
1 43614U 18070B   21217.85230186  .00004740  00000-0  10864-3 0  9997
2 43614  93.0359 326.5843 0014727 161.7244 198.4545 15.42681186162283
CP7 (DAVE)              
1 43615U 18070C   21218.07383543  .00004569  00000-0  10580-3 0  9993
2 43615  93.0364 326.6263 0014937 161.1800 199.0011 15.42370632162301
ELFIN-B                 
1 43616U 18070D   21217.54496754  .00006933  00000-0  14387-3 0  9990
2 43616  93.0314 326.6579 0014743 160.6155 199.5667 15.45598650162351
ELFIN-A                 
1 43617U 18070E   21217.55373530  .00007729  00000-0  15755-3 0  9992
2 43617  93.0362 327.5560 0014204 157.1935 202.9957 15.46123872162378
CZ-4B R/B               
1 43656U 18081B   21217.85822385 -.00000030  00000-0  88754-5 0  9997
2 43656  99.3676 321.8937 0208085 331.2614  27.7226 14.30474036145235
CUBEBEL-1 (BSUSAT-1)    
1 43666U 18083E   21218.22526308  .00001551  00000-0  76069-4 0  9991
2 43666  97.4537 245.9648 0014332   2.7300  56.6212 15.19532942153579
CHANGSHAGAOXIN (TY 4-01)
1 43669U 18083H   21218.18688396  .00001612  00000-0  81850-4 0  9997
2 43669  97.4447 242.8480 0010619   1.2447  42.5902 15.18282377153430
TEN-KOH                 
1 43677U 18084G   21217.86558997  .00000105  00000-0  16677-4 0  9995
2 43677  97.9259 341.0464 0014905 228.2801 131.7142 14.90496933150669
DIWATA-2B               
1 43678U 18084H   21218.02269070 -.00000315  00000-0 -25532-4 0  9991
2 43678  97.9298 343.5726 0008472 244.9522 115.0810 14.91767894150821
STARS-AO                
1 43679U 18084J   21217.83961659  .00000516  00000-0  55909-4 0  9994
2 43679  97.9337 344.6837 0007791 251.2628 108.7745 14.92561970150859
AUTCUBE 2               
1 43681U 18084K   21217.88374395  .00000311  00000-0  36362-4 0  9992
2 43681  97.9305 343.7809 0008173 243.9395 116.0982 14.92125186150782
IRVINE01                
1 43693U 18088D   21217.87180064  .00003955  00000-0  15163-3 0  9998
2 43693  85.0361 162.1086 0015247 192.4524 167.6346 15.26054049151972
ES'HAIL 2               
1 43700U 18090A   21217.87483683  .00000146  00000-0  00000-0 0  9993
2 43700   0.0130  93.1710 0001856  90.2160 111.9550  1.00273456  9862
FACSAT-1                
1 43721U 18096C   21218.19183788  .00002911  00000-0  10501-3 0  9993
2 43721  97.3838 294.9561 0018333  95.4982 316.9777 15.29176482149726
CENTAURI-2              
1 43722U 18096D   21217.46106413  .00003367  00000-0  11671-3 0  9998
2 43722  97.3866 295.1314 0017955  96.2631 264.0655 15.30373452149654
3CAT-1                  
1 43728U 18096K   21218.18061953  .00003691  00000-0  12650-3 0  9991
2 43728  97.3871 296.4447 0018024  97.4548 344.6151 15.30682476149795
INNOSAT-2               
1 43738U 18096V   21218.18230797  .00005761  00000-0  17571-3 0  9993
2 43738  97.3924 299.9344 0022564  93.8288 350.6325 15.34087530150026
REAKTOR HELLO WORLD     
1 43743U 18096AA  21217.46989434  .00002128  00000-0  77807-4 0  9991
2 43743  97.3846 294.6104 0018783 102.2241 258.1104 15.29032032149625
ELYSIUM STAR 2 & LFF    
1 43760U 18099C   21217.87692364  .00001421  00000-0  13028-3 0  9990
2 43760  97.6682 288.1805 0012318 237.0373 122.9665 14.96425935145900
2018-099D               
1 43761U 18099D   21217.73232326  .00000115  00000-0  15611-4 0  9994
2 43761  97.6644 287.2684 0013216 242.6959 117.2912 14.95326556145836
AISTECHSAT 2            
1 43768U 18099L   21217.83540089 -.00000141  00000-0 -77440-5 0  9990
2 43768  97.6597 286.2164 0010100 240.7386 119.2825 14.94946057145528
FOX-1CLIFF (AO-95)      
1 43770U 18099N   21217.43195310  .00000034  00000-0  82425-5 0  9990
2 43770  97.6628 286.5326 0013008 252.1737 107.8066 14.95379175145775
RANGE-A                 
1 43772U 18099Q   21217.91854247  .00000255  00000-0  28061-4 0  9996
2 43772  97.6711 288.0810 0012926 235.7505 124.2493 14.95690628145858
RANGE-B                 
1 43773U 18099R   21217.44120741 -.00000125  00000-0 -62276-5 0  9995
2 43773  97.6559 285.8154 0012249 237.7276 122.2758 14.95255033145769
2018-099T               
1 43775U 18099T   21217.90856368 -.00000192  00000-0 -12211-4 0  9996
2 43775  97.6628 287.2054 0013311 240.7744 119.2146 14.95320993145831
MOVE-II                 
1 43780U 18099Y   21217.43997647  .00000166  00000-0  19872-4 0  9995
2 43780  97.6647 287.1325 0012017 247.9861 112.0084 14.96014339145791
SNUSAT-2                
1 43782U 18099AA  21217.45685544  .00000325  00000-0  34395-4 0  9993
2 43782  97.6622 286.9152 0011536 235.7181 124.2949 14.95612596145799
SNUGLITE                
1 43784U 18099AC  21217.46104783  .00000542  00000-0  53682-4 0  9998
2 43784  97.6586 286.6331 0013707 244.4718 115.5087 14.95743288145813
ITASAT 1                
1 43786U 18099AE  21217.94380039  .00000801  00000-0  77036-4 0  9990
2 43786  97.6647 287.7454 0013700 241.9931 117.9905 14.95665525145882
KAZSCISAT-1             
1 43787U 18099AF  21217.91651534  .00000341  00000-0  35348-4 0  9998
2 43787  97.6556 286.8877 0012893 238.6243 121.3717 14.96179694145903
EAGLET-I                
1 43790U 18099AJ  21217.43165792  .00000039  00000-0  85639-5 0  9998
2 43790  97.6639 287.6761 0011935 248.3381 111.6570 14.96016505145536
ESEO                    
1 43792U 18099AL  21217.42436115  .00000135  00000-0  17237-4 0  9994
2 43792  97.6604 287.2220 0011762 245.1669 114.8330 14.95765441145581
CSIM-FD                 
1 43793U 18099AM  21217.95521028  .00000994  00000-0  92090-4 0  9994
2 43793  97.6639 288.2145 0011432 236.8245 123.1881 14.96683217145673
ASTROCAST 0.1           
1 43798U 18099AS  21217.84204651 -.00000119  00000-0 -54427-5 0  9991
2 43798  97.6643 288.2944 0011263 224.2643 135.7679 14.96247406145901
JY1SAT (JO-97)          
1 43803U 18099AX  21217.43107733  .00000084  00000-0  12643-4 0  9998
2 43803  97.6610 286.9904 0013600 244.3452 115.6365 14.95924173145812
SUOMI-100               
1 43804U 18099AY  21217.43756398 -.00000093  00000-0 -31991-5 0  9996
2 43804  97.6606 286.9592 0013782 244.6388 115.3406 14.95891174145821
AL-FARABI 2             
1 43805U 18099AZ  21218.03316306  .00000432  00000-0  43419-4 0  9997
2 43805  97.6625 287.7886 0013524 241.0211 118.9612 14.96127864145926
CENTAURI-1              
1 43809U 18099BD  21217.91771883  .00000033  00000-0  80779-5 0  9990
2 43809  97.6614 287.7405 0013916 243.7843 116.1948 14.95876653145591
CHOMPTT                 
1 43855U 18104G   21217.89417131  .00001347  00000-0  53540-4 0  9992
2 43855  85.0351 260.7304 0015621 331.2089  28.8290 15.24143405146629
DAVINCI                 
1 43857U 18104J   21217.90423395  .00003406  00000-0  13107-3 0  9997
2 43857  85.0301 260.3936 0013729 358.7844   1.3364 15.25891602146621
UWE-4                   
1 43880U 18111E   21217.31495427 -.00000099  00000-0 -35916-5 0  9992
2 43880  97.6833 124.2084 0011041 306.2296  53.7905 14.96932089142396
ZACUBE-2                
1 43907U 18111AH  21218.20011690  .00000965  00000-0  40838-4 0  9995
2 43907  97.2275 110.6586 0022629 114.9537  44.9233 15.25299543145218
MICRODRAGON             
1 43935U 19003D   21218.05037649  .00001143  00000-0  50684-4 0  9991
2 43935  97.1777 257.3408 0016996 206.2044 153.8335 15.23404455141650
AOBA VELOX-IV           
1 43940U 19003J   21217.83135669  .00003661  00000-0  13708-3 0  9995
2 43940  97.1746 260.0641 0022013 188.8569 171.2286 15.27675925141842
M6P                     
1 44109U 19018AF  21217.96013010  .00003178  00000-0  96803-4 0  9999
2 44109  97.4252 295.3198 0055533 174.9045 185.2774 15.33234063131040
SPOOQY-1                
1 44332U 98067QH  21217.21680890  .00071322  00000-0  33098-3 0  9994
2 44332  51.6322  33.5578 0001230 187.3911 172.7074 15.82760096121808
FORMOSAT 7-4            
1 44350U 19036M   21216.83585154  .00000981  00000-0  40746-4 0  9999
2 44350  24.0004  38.0338 0005810 267.1931  92.7907 15.07860712115600
PAINANI 1               
1 44365U 19037A   21217.64541672  .00004043  00000-0  10163-3 0  9995
2 44365  45.0059 343.5293 0003678 156.9134 203.1920 15.41753626118365
ACRUX 1                 
1 44369U 19037E   21217.50346256  .00007611  00000-0  14687-3 0  9994
2 44369  45.0063 319.0002 0007343 128.0077 232.1479 15.48443040118598
METEOR-M2 2             
1 44387U 19038A   21218.15990583 -.00000029  00000-0  65674-5 0  9996
2 44387  98.6735 177.3068 0002422  96.0583 264.0874 14.23689867108542
